ONEWEB-0656             
1 55817U 23029X   25229.57086206  .00001090  00000+0  26487-2 0  9994
2 55817  87.9304 334.9266 0002209 110.0192 250.1179 13.20780307121076
ONEWEB-0657             
1 55818U 23029Y   25229.35088837 -.00000116  00000+0 -32330-3 0  9998
2 55818  87.9259   5.3933 0001524 121.5018 238.6263 13.19726346118835
ONEWEB-0658             
1 55819U 23029Z   25229.34617139  .00000110  00000+0  24263-3 0  9999
2 55819  87.9268   5.3292 0001550  82.3046 277.8263 13.19724972118847
ONEWEB-0660             
1 55820U 23029AA  25229.56894086  .00000045  00000+0  87115-4 0  9996
2 55820  87.9088 350.1100 0002024  90.1572 269.9790 13.14502445119512
ONEWEB-0661             
1 55821U 23029AB  25229.60382263 -.00000175  00000+0 -50753-3 0  9994
2 55821  87.9089 350.1750 0002104  91.4083 268.7288 13.14503031119505
ONEWEB-0662             
1 55822U 23029AC  25229.56259070  .00000275  00000+0  70613-3 0  9995
2 55822  87.9089 350.1899 0001946  88.1234 272.0118 13.14503429119549
ONEWEB-0663             
1 55823U 23029AD  25229.54872884  .00000065  00000+0  12866-3 0  9991
2 55823  87.9312 334.9870 0001961  85.8232 274.3125 13.20843149121063
ONEWEB-0664             
1 55824U 23029AE  25229.55824095  .00000013  00000+0  12963-5 0  9997
2 55824  87.9306 335.0067 0002290  98.3202 261.8191 13.20773071121069
